[{"OBJECT_NAME":"STARLINK-31257","OBJECT_ID":"2024-041F","EPOCH":"2026-03-09T00:55:49.401408","MEAN_MOTION":15.27580429,"ECCENTRICITY":0.00014469,"INCLINATION":43.0036,"RA_OF_ASC_NODE":314.236,"ARG_OF_PERICENTER":256.3758,"MEAN_ANOMALY":103.6933,"EPHEMERIS_TYPE":0,"CLASSIFICATION_TYPE":"U","NORAD_CAT_ID":59079,"ELEMENT_SET_NO":999,"REV_AT_EPOCH":11417,"BSTAR":2.7929195e-5,"MEAN_MOTION_DOT":5.06e-6,"MEAN_MOTION_DDOT":0},{"OBJECT_NAME":"LIME","OBJECT_ID":"2025-009AR","EPOCH":"2026-03-09T17:44:15.459648","MEAN_MOTION":15.28703313,"ECCENTRICITY":0.00016347,"INCLINATION":97.3985,"RA_OF_ASC_NODE":151.4831,"ARG_OF_PERICENTER":35.9029,"MEAN_ANOMALY":324.232,"EPHEMERIS_TYPE":0,"CLASSIFICATION_TYPE":"U","NORAD_CAT_ID":62648,"ELEMENT_SET_NO":999,"REV_AT_EPOCH":6376,"BSTAR":0.00047722827,"MEAN_MOTION_DOT":0.00013254,"MEAN_MOTION_DDOT":0}]
